ONEWEB-0435             
1 51632U 22012L   24258.78525182 -.00000074  00000+0 -24771-3 0  9999
2 51632  87.8997 163.7191 0001637  87.1430 272.9885 13.10375678125443
ONEWEB-0436             
1 51633U 22012M   24258.91854437  .00000075  00000+0  15936-3 0  9995
2 51633  87.9134 133.3893 0001696  84.6901 275.4424 13.17647024129366
ONEWEB-0438             
1 51634U 22012N   24258.76863907 -.00000596  00000+0 -17441-2 0  9993
2 51634  87.8992 163.7231 0001793  67.6927 292.4390 13.10372222125475
ONEWEB-0439             
1 51635U 22012P   24258.77196145 -.00000516  00000+0 -15156-2 0  9991
2 51635  87.8993 163.7083 0001824  76.0825 284.0505 13.10373795125457
ONEWEB-0442             
1 51636U 22012Q   24258.91126606  .00000080  00000+0  17356-3 0  9992
2 51636  87.9139 133.4289 0002132  59.1213 301.0128 13.17647061130644
ONEWEB-0443             
1 51637U 22012R   24258.92985543  .00000058  00000+0  11535-3 0  9995
2 51637  87.9140 133.4345 0001371  83.8938 276.2349 13.17650309129401
ONEWEB-0444             
1 51638U 22012S   24258.76200667 -.00000507  00000+0 -14885-2 0  9996
2 51638  87.8985 163.7271 0001697  77.9596 282.1721 13.10372048125463
ONEWEB-0445             
1 51639U 22012T   24258.78358496 -.00000112  00000+0 -35834-3 0  9993
2 51639  87.8985 163.6906 0002077  70.2797 289.8554 13.10377294125477
